GAOFEN-11 01            
1 43585U 18063A   26160.64512963  .00016419  00000+0  24546-3 0  9998
2 43585  97.1296 227.5469 0003990  24.5670 335.5774 15.55075322439174
ICESAT-2                
1 43613U 18070A   26160.55940095  .00009271  00000+0  33646-3 0  9998
2 43613  92.0066 288.9195 0005352 116.7148 243.4650 15.28281271431297
HYSIS                   
1 43719U 18096A   26160.63252090  .00001471  00000+0  20777-3 0  9998
2 43719  97.9838 227.4397 0001728 110.0933 250.0464 14.78682760406302
KAZSTSAT                
1 43783U 18099AB  26160.35856570  .00001197  00000+0  10111-3 0  9990
2 43783  97.4264 192.6432 0007945  90.1061 270.1074 14.99843960410131
SAUDISAT 5A             
1 43831U 18102A   26160.63383150  .00004930  00000+0  18310-3 0  9996
2 43831  97.3072 222.3606 0010466 152.6715 207.5078 15.27969193414521
SAUDISAT 5B             
1 43833U 18102C   26160.65395462  .00004750  00000+0  17508-3 0  9997
2 43833  97.3179 225.4363 0011104 155.1528 205.0249 15.28230451414640
GAOFEN-10R              
1 44622U 19066A   26160.59721182  .00001088  00000+0  14050-3 0  9999
2 44622  98.0494 114.1213 0006160 148.6145 211.5437 14.83044118361253
CARTOSAT-3              
1 44804U 19081A   26160.64885803  .00004964  00000+0  23841-3 0  9999
2 44804  97.4307 222.6372 0012429 173.7748 186.3643 15.19230839362329
GAOFEN-12 01            
1 44819U 19082A   26160.64503289  .00000372  00000+0  55292-4 0  9996
2 44819  97.8106 167.2236 0002457  79.3895 280.7594 14.80452427352973
CSG-1                   
1 44873U 19092A   26160.62517928  .00000412  00000+0  58366-4 0  9990
2 44873  97.8887 344.3374 0001431  90.8202 269.3175 14.82158653350355
NEMO-HD                 
1 46277U 20061F   26160.61440894  .00010285  00000+0  22413-3 0  9996
2 46277  97.1925 222.6443 0002526  89.0419 271.1120 15.44441729320819
SENTINEL-6A             
1 46984U 20086A   26160.35596632 -.00000030  00000+0  13566-3 0  9998
2 46984  66.0386 151.3179 0007938 270.2967  89.7139 12.80929816259323
CAS500-1                
1 47932U 21022A   26160.62484067  .00001487  00000+0  71967-4 0  9997
2 47932  97.3910  56.0312 0004475 336.6394  23.4638 15.20117074289617
GAOFEN-12 02            
1 48079U 21026A   26160.65528509  .00000356  00000+0  53653-4 0  9993
2 48079  97.9920 158.8668 0003351 255.1652 104.9189 14.80290294280647
PLEIADES NEO 3          
1 48268U 21034A   26160.62198206  .00001039  00000+0  13859-3 0  9998
2 48268  97.8926 235.4977 0001384  86.9289 273.2082 14.81671021276534
PLEIADES NEO 4          
1 49070U 21073E   26159.98043271  .00001403  00000+0  18495-3 0  9997
2 49070  97.8928 234.8608 0001396  84.4017 275.7355 14.81666705260151
LANDSAT 9               
1 49260U 21088A   26160.43679827  .00000259  00000+0  67570-4 0  9995
2 49260  98.2279 230.7077 0001452  88.0861 272.0504 14.57105268249878
CSG-2                   
1 51444U 22008A   26160.59141174  .00000119  00000+0  21479-4 0  9994
2 51444  97.8890 344.2993 0001380  85.1054 275.0317 14.82149705235466
GAOFEN-12 03            
1 52912U 22069A   26160.61622885  .00000351  00000+0  53090-4 0  9990
2 52912  97.8288  48.6767 0001768 110.0725 250.0677 14.80021612213490
SWOT                    
1 54754U 22173A   26160.48555081  .00000067  00000+0  47148-4 0  9991
2 54754  77.6112  45.7073 0000215  96.3134 263.8042 14.00168643178072
GAOFEN-12 04            
1 57654U 23123A   26160.63390500  .00000927  00000+0  12872-3 0  9999
2 57654  97.9126  78.7601 0001786  86.5558 273.5858 14.80214231151518
PARS 1                  
1 59065U 24039Q   26160.61046561  .00010125  00000+0  21211-3 0  9995
2 59065  97.4818 141.2925 0011001 134.1636 226.0519 15.45567162127473
RESURS-P 4              
1 59371U 24061A   26160.62168740  .00002875  00000+0  95276-4 0  9991
2 59371  97.2746 108.6524 0001584 131.7725 228.3653 15.32087964122607
LEGION 1                
1 59625U 24081A   26160.50769496  .00003514  00000+0  18308-3 0  9998
2 59625  97.5016 238.4470 0010224  42.8359 317.3669 15.16613427116374
LEGION 2                
1 59626U 24081B   26160.47159199  .00003134  00000+0  16368-3 0  9990
2 59626  97.5016 238.5088 0011518  11.0846 349.0639 15.16592785116379
ALOS-4 (DAICHI-4)       
1 60182U 24123A   26160.58363446  .00001382  00000+0  19187-3 0  9995
2 60182  97.9241 257.8641 0001628  97.3174 262.8223 14.79470563104750
LEGION 3                
1 60452U 24146A   26160.48724866  .00004135  00000+0  22514-3 0  9993
2 60452  45.0014  71.8488 0006950 121.7076 238.4481 15.15980591100851
LEGION 4                
1 60453U 24146B   26160.42439093  .00002844  00000+0  15899-3 0  9996
2 60453  45.0004 164.0972 0014087 267.9650  91.9615 15.15976673 99691
SENTINEL-2C             
1 60989U 24157A   26160.48023306  .00000086  00000+0  49423-4 0  9991
2 60989  98.5692 235.3710 0001155  79.8034 280.3280 14.30815732 91880
IONOSFERA-M 1           
1 61735U 24199A   26160.52826175  .00000034  00000+0  34857-4 0  9995
2 61735  98.7183  33.7810 0001723 120.7299 239.4048 14.22752823126617
