OBJECT_NAME,OBJECT_ID,EPOCH,MEAN_MOTION,ECCENTRICITY,INCLINATION,RA_OF_ASC_NODE,ARG_OF_PERICENTER,MEAN_ANOMALY,EPHEMERIS_TYPE,CLASSIFICATION_TYPE,NORAD_CAT_ID,ELEMENT_SET_NO,REV_AT_EPOCH,BSTAR,MEAN_MOTION_DOT,MEAN_MOTION_DDOT
GAOFEN-11 01,2018-063A,2026-06-09T15:28:59.200032,15.55075322,.00039907,97.1296,227.5469,24.5670,335.5774,0,U,43585,999,43917,.24545914E-3,.16419E-3,0
ICESAT-2,2018-070A,2026-06-09T13:25:32.242080,15.28281271,.00053527,92.0066,288.9195,116.7148,243.4650,0,U,43613,999,43129,.33645982E-3,.9271E-4,0
HYSIS,2018-096A,2026-06-09T15:10:49.805760,14.78682760,.00017281,97.9838,227.4397,110.0933,250.0464,0,U,43719,999,40630,.20776582E-3,.1471E-4,0
KAZSTSAT,2018-099AB,2026-06-09T08:36:20.076480,14.99843960,.00079452,97.4264,192.6432,90.1061,270.1074,0,U,43783,999,41013,.10111349E-3,.1197E-4,0
SAUDISAT 5A,2018-102A,2026-06-09T15:12:43.041600,15.27969193,.00104664,97.3072,222.3606,152.6715,207.5078,0,U,43831,999,41452,.18310357E-3,.493E-4,0
SAUDISAT 5B,2018-102C,2026-06-09T15:41:41.679168,15.28230451,.00111045,97.3179,225.4363,155.1528,205.0249,0,U,43833,999,41464,.17507946E-3,.475E-4,0
GAOFEN-10R,2019-066A,2026-06-09T14:19:59.101248,14.83044118,.00061605,98.0494,114.1213,148.6145,211.5437,0,U,44622,999,36125,.14049834E-3,.1088E-4,0
CARTOSAT-3,2019-081A,2026-06-09T15:34:21.333792,15.19230839,.0012429,97.4307,222.6372,173.7748,186.3643,0,U,44804,999,36232,.23841452E-3,.4964E-4,0
GAOFEN-12 01,2019-082A,2026-06-09T15:28:50.841696,14.80452427,.00024574,97.8106,167.2236,79.3895,280.7594,0,U,44819,999,35297,.55292478E-4,.372E-5,0
CSG-1,2019-092A,2026-06-09T15:00:15.489792,14.82158653,.00014311,97.8887,344.3374,90.8202,269.3175,0,U,44873,999,35035,.58365814E-4,.412E-5,0
NEMO-HD,2020-061F,2026-06-09T14:44:44.932416,15.44441729,.00025267,97.1925,222.6443,89.0419,271.1120,0,U,46277,999,32081,.22413371E-3,.10285E-3,0
SENTINEL-6A,2020-086A,2026-06-09T08:32:35.490048,12.80929816,.00079388,66.0386,151.3179,270.2967,89.7139,0,U,46984,999,25932,.13566436E-3,-.3E-6,0
CAS500-1,2021-022A,2026-06-09T14:59:46.233888,15.20117074,.00044755,97.3910,56.0312,336.6394,23.4638,0,U,47932,999,28961,.71967084E-4,.1487E-4,0
GAOFEN-12 02,2021-026A,2026-06-09T15:43:36.631776,14.80290294,.00033518,97.9920,158.8668,255.1652,104.9189,0,U,48079,999,28064,.53652869E-4,.356E-5,0
PLEIADES NEO 3,2021-034A,2026-06-09T14:55:39.249984,14.81671021,.00013846,97.8926,235.4977,86.9289,273.2082,0,U,48268,999,27653,.13859264E-3,.1039E-4,0
PLEIADES NEO 4,2021-073E,2026-06-08T23:31:49.386144,14.81666705,.00013962,97.8928,234.8608,84.4017,275.7355,0,U,49070,999,26015,.18495191E-3,.1403E-4,0
LANDSAT 9,2021-088A,2026-06-09T10:28:59.370528,14.57105268,.00014521,98.2279,230.7077,88.0861,272.0504,0,U,49260,999,24987,.67570197E-4,.259E-5,0
CSG-2,2022-008A,2026-06-09T14:11:37.974336,14.82149705,.00013804,97.8890,344.2993,85.1054,275.0317,0,U,51444,999,23546,.21479268E-4,.119E-5,0
GAOFEN-12 03,2022-069A,2026-06-09T14:47:22.172640,14.80021612,.0001768,97.8288,48.6767,110.0725,250.0677,0,U,52912,999,21349,.53089528E-4,.351E-5,0
SWOT,2022-173A,2026-06-09T11:39:11.589984,14.00168643,.00002155,77.6112,45.7073,96.3134,263.8042,0,U,54754,999,17807,.47147883E-4,.67E-6,0
GAOFEN-12 04,2023-123A,2026-06-09T15:12:49.392000,14.80214231,.00017861,97.9126,78.7601,86.5558,273.5858,0,U,57654,999,15151,.12871594E-3,.927E-5,0
PARS 1,2024-039Q,2026-06-09T14:39:04.228704,15.45567162,.0011001,97.4818,141.2925,134.1636,226.0519,0,U,59065,999,12747,.2121145E-3,.10125E-3,0
RESURS-P 4,2024-061A,2026-06-09T14:55:13.791360,15.32087964,.00015843,97.2746,108.6524,131.7725,228.3653,0,U,59371,999,12260,.95276308E-4,.2875E-4,0
LEGION 1,2024-081A,2026-06-09T12:11:04.844544,15.16613427,.00102243,97.5016,238.4470,42.8359,317.3669,0,U,59625,999,11637,.18308073E-3,.3514E-4,0
LEGION 2,2024-081B,2026-06-09T11:19:05.547936,15.16592785,.00115188,97.5016,238.5088,11.0846,349.0639,0,U,59626,999,11637,.16368025E-3,.3134E-4,0
ALOS-4 (DAICHI-4),2024-123A,2026-06-09T14:00:26.017344,14.79470563,.00016284,97.9241,257.8641,97.3174,262.8223,0,U,60182,999,10475,.1918718E-3,.1382E-4,0
LEGION 3,2024-146A,2026-06-09T11:41:38.284224,15.15980591,.000695,45.0014,71.8488,121.7076,238.4481,0,U,60452,999,10085,.22514424E-3,.4135E-4,0
LEGION 4,2024-146B,2026-06-09T10:11:07.376352,15.15976673,.00140873,45.0004,164.0972,267.9650,91.9615,0,U,60453,999,9969,.15898936E-3,.2844E-4,0
SENTINEL-2C,2024-157A,2026-06-09T11:31:32.136384,14.30815732,.00011559,98.5692,235.3710,79.8034,280.3280,0,U,60989,999,9188,.49423333E-4,.86E-6,0
IONOSFERA-M 1,2024-199A,2026-06-09T12:40:41.815200,14.22752823,.0001723,98.7183,33.7810,120.7299,239.4048,0,U,61735,999,12661,.34856543E-4,.34E-6,0
